{"type": "FeatureCollection", "features": [ {"type": "Feature", "properties": {"norad_id": 39781, "name": "IRIDIUM 33 DEB", "group": "iridium-33-debris", "lat": 44.16816333848108, "lon": 68.59225335207842, "alt_km": 820.3040212060923, "timestamp": "2025-12-26T22:28:06.170829+00:00", "meta": {"OBJECT_NAME": "IRIDIUM 33 DEB", "OBJECT_ID": "1997-051AAN", "EPOCH": "2025-12-26T00:09:41.273280", "MEAN_MOTION": 14.20964815, "ECCENTRICITY": 0.01723668, "INCLINATION": 86.3698, "RA_OF_ASC_NODE": 252.511, "ARG_OF_PERICENTER": 230.4954, "MEAN_ANOMALY": 195.4493, "EPHEMERIS_TYPE": 0, "CLASSIFICATION_TYPE": "U", "NORAD_CAT_ID": 39781, "ELEMENT_SET_NO": 999, "REV_AT_EPOCH": 8295, "BSTAR": 0.0048537069, "MEAN_MOTION_DOT": 0.00012243, "MEAN_MOTION_DDOT": 0}, "tle": {"line1": "1 39781U 97051AAN 25360.00672770  .00012243  00000+0  48537-2 0  9995", "line2": "2 39781  86.3698 252.5110 0172366 230.4954 195.4493 14.20964815 82957"}}, "geometry": {"type": "Point", "coordinates": [68.59225335207842, 44.16816333848108]}}, {"type": "Feature", "properties": {"norad_id": 40996, "name": "IRIDIUM 33 DEB", "group": "iridium-33-debris", "lat": -38.52069052489149, "lon": 177.68320415392114, "alt_km": 589.2496236130819, "timestamp": "2025-12-26T22:28:06.170840+00:00", "meta": {"OBJECT_NAME": "IRIDIUM 33 DEB", "OBJECT_ID": "1997-051ABJ", "EPOCH": "2025-12-25T10:52:55.970112", "MEAN_MOTION": 14.97048042, "ECCENTRICITY": 0.0010436, "INCLINATION": 86.3519, "RA_OF_ASC_NODE": 355.4655, "ARG_OF_PERICENTER": 27.9702, "MEAN_ANOMALY": 124.5027, "EPHEMERIS_TYPE": 0, "CLASSIFICATION_TYPE": "U", "NORAD_CAT_ID": 40996, "ELEMENT_SET_NO": 999, "REV_AT_EPOCH": 62678, "BSTAR": 0.0031302, "MEAN_MOTION_DOT": 0.00036257, "MEAN_MOTION_DDOT": 0}, "tle": {"line1": "1 40996U 97051ABJ 25359.45342558  .00036257  00000+0  31302-2 0  9993", "line2": "2 40996  86.3519 355.4655 0010436  27.9702 124.5027 14.97048042626785"}}, "geometry": {"type": "Point", "coordinates": [177.68320415392114, -38.52069052489149]}}, {"type": "Feature", "properties": {"norad_id": 40998, "name": "IRIDIUM 33 DEB", "group": "iridium-33-debris", "lat": -22.019827720468, "lon": -130.9428676578524, "alt_km": 752.6226368037032, "timestamp": "2025-12-26T22:28:06.170850+00:00", "meta": {"OBJECT_NAME": "IRIDIUM 33 DEB", "OBJECT_ID": "1997-051ABL", "EPOCH": "2025-12-26T10:09:43.353216", "MEAN_MOTION": 14.4513968, "ECCENTRICITY": 0.0008602, "INCLINATION": 86.3812, "RA_OF_ASC_NODE": 47.8096, "ARG_OF_PERICENTER": 47.0142, "MEAN_ANOMALY": 8.9419, "EPHEMERIS_TYPE": 0, "CLASSIFICATION_TYPE": "U", "NORAD_CAT_ID": 40998, "ELEMENT_SET_NO": 999, "REV_AT_EPOCH": 6879, "BSTAR": 0.00044303, "MEAN_MOTION_DOT": 1.57e-05, "MEAN_MOTION_DDOT": 0}, "tle": {"line1": "1 40998U 97051ABL 25360.42341844  .00001570  00000+0  44303-3 0  9997", "line2": "2 40998  86.3812  47.8096 0008602  47.0142   8.9419 14.45139680 68790"}}, "geometry": {"type": "Point", "coordinates": [-130.9428676578524, -22.019827720468]}}, {"type": "Feature", "properties": {"norad_id": 46435, "name": "IRIDIUM 33 DEB", "group": "iridium-33-debris", "lat": 26.500326557351322, "lon": 5.978954485891693, "alt_km": 743.6102132481556, "timestamp": "2025-12-26T22:28:06.170861+00:00", "meta": {"OBJECT_NAME": "IRIDIUM 33 DEB", "OBJECT_ID": "1997-051ABN", "EPOCH": "2025-12-23T07:26:56.673024", "MEAN_MOTION": 14.32901113, "ECCENTRICITY": 0.02063954, "INCLINATION": 86.2811, "RA_OF_ASC_NODE": 189.3996, "ARG_OF_PERICENTER": 241.8575, "MEAN_ANOMALY": 300.4526, "EPHEMERIS_TYPE": 0, "CLASSIFICATION_TYPE": "U", "NORAD_CAT_ID": 46435, "ELEMENT_SET_NO": 999, "REV_AT_EPOCH": 8067, "BSTAR": 0.0098042113, "MEAN_MOTION_DOT": 0.00034078, "MEAN_MOTION_DDOT": 0}, "tle": {"line1": "1 46435U 97051ABN 25357.31037816  .00034078  00000+0  98042-2 0  9991", "line2": "2 46435  86.2811 189.3996 0206395 241.8575 300.4526 14.32901113 80678"}}, "geometry": {"type": "Point", "coordinates": [5.978954485891693, 26.500326557351322]}}, {"type": "Feature", "properties": {"norad_id": 46734, "name": "IRIDIUM 33 DEB", "group": "iridium-33-debris", "lat": 80.94977558772794, "lon": 152.41363585625447, "alt_km": 770.9053979148648, "timestamp": "2025-12-26T22:28:06.170874+00:00", "meta": {"OBJECT_NAME": "IRIDIUM 33 DEB", "OBJECT_ID": "1997-051ABR", "EPOCH": "2025-12-26T17:50:24.765216", "MEAN_MOTION": 14.41977609, "ECCENTRICITY": 0.0037286, "INCLINATION": 86.2643, "RA_OF_ASC_NODE": 356.7146, "ARG_OF_PERICENTER": 287.6839, "MEAN_ANOMALY": 250.0616, "EPHEMERIS_TYPE": 0, "CLASSIFICATION_TYPE": "U", "NORAD_CAT_ID": 46734, "ELEMENT_SET_NO": 999, "REV_AT_EPOCH": 63212, "BSTAR": 0.0011195, "MEAN_MOTION_DOT": 3.719e-05, "MEAN_MOTION_DDOT": 0}, "tle": {"line1": "1 46734U 97051ABR 25360.74334219  .00003719  00000+0  11195-2 0  9993", "line2": "2 46734  86.2643 356.7146 0037286 287.6839 250.0616 14.41977609632128"}}, "geometry": {"type": "Point", "coordinates": [152.41363585625447, 80.94977558772794]}}, {"type": "Feature", "properties": {"norad_id": 46965, "name": "IRIDIUM 33 DEB", "group": "iridium-33-debris", "lat": 83.49145163410302, "lon": 120.23174946651982, "alt_km": 696.4093371457257, "timestamp": "2025-12-26T22:28:06.170885+00:00", "meta": {"OBJECT_NAME": "IRIDIUM 33 DEB", "OBJECT_ID": "1997-051ABX", "EPOCH": "2025-12-23T05:18:49.392864", "MEAN_MOTION": 14.60370511, "ECCENTRICITY": 0.00170224, "INCLINATION": 86.3362, "RA_OF_ASC_NODE": 336.0473, "ARG_OF_PERICENTER": 295.0187, "MEAN_ANOMALY": 82.9345, "EPHEMERIS_TYPE": 0, "CLASSIFICATION_TYPE": "U", "NORAD_CAT_ID": 46965, "ELEMENT_SET_NO": 999, "REV_AT_EPOCH": 62421, "BSTAR": 0.00084803208, "MEAN_MOTION_DOT": 4.13e-05, "MEAN_MOTION_DDOT": 0}, "tle": {"line1": "1 46965U 97051ABX 25357.22140501  .00004130  00000+0  84803-3 0  9992", "line2": "2 46965  86.3362 336.0473 0017022 295.0187  82.9345 14.60370511624214"}}, "geometry": {"type": "Point", "coordinates": [120.23174946651982, 83.49145163410302]}}, {"type": "Feature", "properties": {"norad_id": 46971, "name": "IRIDIUM 33 DEB", "group": "iridium-33-debris", "lat": -41.186707067278974, "lon": -36.77487305627566, "alt_km": 576.5478891873354, "timestamp": "2025-12-26T22:28:06.170895+00:00", "meta": {"OBJECT_NAME": "IRIDIUM 33 DEB", "OBJECT_ID": "1997-051ACD", "EPOCH": "2025-12-18T04:46:20.926848", "MEAN_MOTION": 14.98336604, "ECCENTRICITY": 0.00026432, "INCLINATION": 86.3383, "RA_OF_ASC_NODE": 330.5483, "ARG_OF_PERICENTER": 282.6501, "MEAN_ANOMALY": 90.914, "EPHEMERIS_TYPE": 0, "CLASSIFICATION_TYPE": "U", "NORAD_CAT_ID": 46971, "ELEMENT_SET_NO": 999, "REV_AT_EPOCH": 64312, "BSTAR": 0.0022892837, "MEAN_MOTION_DOT": 0.00027356, "MEAN_MOTION_DDOT": 0}, "tle": {"line1": "1 46971U 97051ACD 25352.19885332  .00027356  00000+0  22893-2 0  9993", "line2": "2 46971  86.3383 330.5483 0002643 282.6501  90.9140 14.98336604643128"}}, "geometry": {"type": "Point", "coordinates": [-36.77487305627566, -41.186707067278974]}}, {"type": "Feature", "properties": {"norad_id": 46972, "name": "IRIDIUM 33 DEB", "group": "iridium-33-debris", "lat": -21.462201384998618, "lon": -145.28423555843185, "alt_km": 734.421544342089, "timestamp": "2025-12-26T22:28:06.170905+00:00", "meta": {"OBJECT_NAME": "IRIDIUM 33 DEB", "OBJECT_ID": "1997-051ACE", "EPOCH": "2025-12-24T20:41:33.679968", "MEAN_MOTION": 14.50725222, "ECCENTRICITY": 0.00114655, "INCLINATION": 86.386, "RA_OF_ASC_NODE": 34.1849, "ARG_OF_PERICENTER": 73.1922, "MEAN_ANOMALY": 103.3991, "EPHEMERIS_TYPE": 0, "CLASSIFICATION_TYPE": "U", "NORAD_CAT_ID": 46972, "ELEMENT_SET_NO": 999, "REV_AT_EPOCH": 61748, "BSTAR": 0.00047832722, "MEAN_MOTION_DOT": 1.902e-05, "MEAN_MOTION_DDOT": 0}, "tle": {"line1": "1 46972U 97051ACE 25358.86219537  .00001902  00000+0  47833-3 0  9993", "line2": "2 46972  86.3860  34.1849 0011465  73.1922 103.3991 14.50725222617483"}}, "geometry": {"type": "Point", "coordinates": [-145.28423555843185, -21.462201384998618]}}, {"type": "Feature", "properties": {"norad_id": 46974, "name": "IRIDIUM 33 DEB", "group": "iridium-33-debris", "lat": 83.1059072456581, "lon": 131.45255815800633, "alt_km": 697.8559059191712, "timestamp": "2025-12-26T22:28:06.170916+00:00", "meta": {"OBJECT_NAME": "IRIDIUM 33 DEB", "OBJECT_ID": "1997-051ACG", "EPOCH": "2025-12-26T00:28:10.096320", "MEAN_MOTION": 14.44719321, "ECCENTRICITY": 0.00952802, "INCLINATION": 86.2981, "RA_OF_ASC_NODE": 99.4774, "ARG_OF_PERICENTER": 144.0195, "MEAN_ANOMALY": 216.7473, "EPHEMERIS_TYPE": 0, "CLASSIFICATION_TYPE": "U", "NORAD_CAT_ID": 46974, "ELEMENT_SET_NO": 999, "REV_AT_EPOCH": 57700, "BSTAR": 0.0033998719, "MEAN_MOTION_DOT": 0.00012499, "MEAN_MOTION_DDOT": 0}, "tle": {"line1": "1 46974U 97051ACG 25360.01956130  .00012499  00000+0  33999-2 0  9992", "line2": "2 46974  86.2981  99.4774 0095280 144.0195 216.7473 14.44719321577009"}}, "geometry": {"type": "Point", "coordinates": [131.45255815800633, 83.1059072456581]}}, {"type": "Feature", "properties": {"norad_id": 46979, "name": "IRIDIUM 33 DEB", "group": "iridium-33-debris", "lat": -73.57934235633967, "lon": -125.47954131326807, "alt_km": 600.7461837712408, "timestamp": "2025-12-26T22:28:06.170928+00:00", "meta": {"OBJECT_NAME": "IRIDIUM 33 DEB", "OBJECT_ID": "1997-051ACM", "EPOCH": "2025-12-24T20:59:38.183136", "MEAN_MOTION": 14.90364123, "ECCENTRICITY": 0.002819, "INCLINATION": 86.3328, "RA_OF_ASC_NODE": 42.91, "ARG_OF_PERICENTER": 179.7106, "MEAN_ANOMALY": 180.4142, "EPHEMERIS_TYPE": 0, "CLASSIFICATION_TYPE": "U", "NORAD_CAT_ID": 46979, "ELEMENT_SET_NO": 999, "REV_AT_EPOCH": 35609, "BSTAR": 0.0040991, "MEAN_MOTION_DOT": 0.00040379, "MEAN_MOTION_DDOT": 0}, "tle": {"line1": "1 46979U 97051ACM 25358.87474749  .00040379  00000+0  40991-2 0  9997", "line2": "2 46979  86.3328  42.9100 0028190 179.7106 180.4142 14.90364123356090"}}, "geometry": {"type": "Point", "coordinates": [-125.47954131326807, -73.57934235633967]}}]}